FENGYUN 1C DEB          
1 30673U 99025AQF 17345.95380278  .00000202  00000-0  16082-3 0  9990
2 30673  99.2548 352.6149 0051753 305.4318 111.7133 14.02137808555616
